[{"OBJECT_NAME":"EXCITE","OBJECT_ID":"2018-099BP","EPOCH":"2026-03-09T16:45:15.060672","MEAN_MOTION":15.06036758,"ECCENTRICITY":0.0017626,"INCLINATION":97.4107,"RA_OF_ASC_NODE":111.3606,"ARG_OF_PERICENTER":337.4818,"MEAN_ANOMALY":22.5634,"EPHEMERIS_TYPE":0,"CLASSIFICATION_TYPE":"U","NORAD_CAT_ID":43819,"ELEMENT_SET_NO":999,"REV_AT_EPOCH":39677,"BSTAR":0.00019631388,"MEAN_MOTION_DOT":2.813e-5,"MEAN_MOTION_DDOT":0},{"OBJECT_NAME":"STARLINK-5106","OBJECT_ID":"2022-177D","EPOCH":"2026-03-09T05:32:34.269216","MEAN_MOTION":15.02534164,"ECCENTRICITY":0.00011238,"INCLINATION":43.006,"RA_OF_ASC_NODE":136.0572,"ARG_OF_PERICENTER":254.3971,"MEAN_ANOMALY":105.6747,"EPHEMERIS_TYPE":0,"CLASSIFICATION_TYPE":"U","NORAD_CAT_ID":54823,"ELEMENT_SET_NO":999,"REV_AT_EPOCH":17688,"BSTAR":-1.6203346e-5,"MEAN_MOTION_DOT":-4.22e-6,"MEAN_MOTION_DDOT":0}]
